CCSDS_OMM_VERS = 2.0
CREATION_DATE  = 
ORIGINATOR     = 

OBJECT_NAME    = SL-16 R/B
OBJECT_ID      = 1993-016B
CENTER_NAME    = EARTH
REF_FRAME      = TEME
TIME_SYSTEM    = UTC
MEAN_ELEMENT_THEORY = SGP/SGP4

EPOCH          = 2026-02-06T02:47:44.980512
MEAN_MOTION    = 14.15304048
ECCENTRICITY   = .00101348
INCLINATION    = 71.0075
RA_OF_ASC_NODE = 281.4981
ARG_OF_PERICENTER = 357.6791
MEAN_ANOMALY   = 2.4283

EPHEMERIS_TYPE = 0
CLASSIFICATION_TYPE = U
NORAD_CAT_ID   = 22566
ELEMENT_SET_NO = 999
REV_AT_EPOCH   = 69770
BSTAR          = .3593512E-5
MEAN_MOTION_DOT = -.41E-6
MEAN_MOTION_DDOT = 0

CCSDS_OMM_VERS = 2.0
CREATION_DATE  = 
ORIGINATOR     = 

OBJECT_NAME    = COSMOS 2242
OBJECT_ID      = 1993-024A
CENTER_NAME    = EARTH
REF_FRAME      = TEME
TIME_SYSTEM    = UTC
MEAN_ELEMENT_THEORY = SGP/SGP4

EPOCH          = 2026-02-06T03:25:09.162624
MEAN_MOTION    = 14.96417133
ECCENTRICITY   = .00177505
INCLINATION    = 82.5194
RA_OF_ASC_NODE = 296.8892
ARG_OF_PERICENTER = 54.3971
MEAN_ANOMALY   = 305.8902

EPHEMERIS_TYPE = 0
CLASSIFICATION_TYPE = U
NORAD_CAT_ID   = 22626
ELEMENT_SET_NO = 999
REV_AT_EPOCH   = 77567
BSTAR          = .27322453E-3
MEAN_MOTION_DOT = .3131E-4
MEAN_MOTION_DDOT = 0

CCSDS_OMM_VERS = 2.0
CREATION_DATE  = 
ORIGINATOR     = 

OBJECT_NAME    = SL-16 R/B
OBJECT_ID      = 1993-059B
CENTER_NAME    = EARTH
REF_FRAME      = TEME
TIME_SYSTEM    = UTC
MEAN_ELEMENT_THEORY = SGP/SGP4

EPOCH          = 2026-02-06T01:38:13.496928
MEAN_MOTION    = 14.17226335
ECCENTRICITY   = .00194864
INCLINATION    = 70.9892
RA_OF_ASC_NODE = 77.8131
ARG_OF_PERICENTER = 259.7844
MEAN_ANOMALY   = 100.1082

EPHEMERIS_TYPE = 0
CLASSIFICATION_TYPE = U
NORAD_CAT_ID   = 22803
ELEMENT_SET_NO = 999
REV_AT_EPOCH   = 67505
BSTAR          = .15877729E-3
MEAN_MOTION_DOT = .273E-5
MEAN_MOTION_DDOT = 0

CCSDS_OMM_VERS = 2.0
CREATION_DATE  = 
ORIGINATOR     = 

OBJECT_NAME    = ARIANE 40 R/B
OBJECT_ID      = 1993-061H
CENTER_NAME    = EARTH
REF_FRAME      = TEME
TIME_SYSTEM    = UTC
MEAN_ELEMENT_THEORY = SGP/SGP4

EPOCH          = 2026-02-06T03:14:25.627776
MEAN_MOTION    = 14.32844052
ECCENTRICITY   = .00109778
INCLINATION    = 98.4983
RA_OF_ASC_NODE = 106.6348
ARG_OF_PERICENTER = 23.7093
MEAN_ANOMALY   = 336.4595

EPHEMERIS_TYPE = 0
CLASSIFICATION_TYPE = U
NORAD_CAT_ID   = 22830
ELEMENT_SET_NO = 999
REV_AT_EPOCH   = 68958
BSTAR          = .11899849E-3
MEAN_MOTION_DOT = .282E-5
MEAN_MOTION_DDOT = 0

CCSDS_OMM_VERS = 2.0
CREATION_DATE  = 
ORIGINATOR     = 

OBJECT_NAME    = COSMOS 2278
OBJECT_ID      = 1994-023A
CENTER_NAME    = EARTH
REF_FRAME      = TEME
TIME_SYSTEM    = UTC
MEAN_ELEMENT_THEORY = SGP/SGP4

EPOCH          = 2026-02-06T11:29:55.034016
MEAN_MOTION    = 14.14364268
ECCENTRICITY   = .0006521
INCLINATION    = 71.0503
RA_OF_ASC_NODE = 240.3957
ARG_OF_PERICENTER = 72.2758
MEAN_ANOMALY   = 287.9076

EPHEMERIS_TYPE = 0
CLASSIFICATION_TYPE = U
NORAD_CAT_ID   = 23087
ELEMENT_SET_NO = 999
REV_AT_EPOCH   = 64039
BSTAR          = -.71989E-4
MEAN_MOTION_DOT = -.185E-5
MEAN_MOTION_DDOT = 0

CCSDS_OMM_VERS = 2.0
CREATION_DATE  = 
ORIGINATOR     = 

OBJECT_NAME    = SL-16 R/B
OBJECT_ID      = 1994-023B
CENTER_NAME    = EARTH
REF_FRAME      = TEME
TIME_SYSTEM    = UTC
MEAN_ELEMENT_THEORY = SGP/SGP4

EPOCH          = 2026-02-05T16:35:40.282944
MEAN_MOTION    = 14.15003659
ECCENTRICITY   = .0004441
INCLINATION    = 70.9999
RA_OF_ASC_NODE = 138.0886
ARG_OF_PERICENTER = 315.1252
MEAN_ANOMALY   = 44.9511

EPHEMERIS_TYPE = 0
CLASSIFICATION_TYPE = U
NORAD_CAT_ID   = 23088
ELEMENT_SET_NO = 999
REV_AT_EPOCH   = 64156
BSTAR          = -.44594E-5
MEAN_MOTION_DOT = -.56E-6
MEAN_MOTION_DDOT = 0

CCSDS_OMM_VERS = 2.0
CREATION_DATE  = 
ORIGINATOR     = 

OBJECT_NAME    = SL-16 R/B
OBJECT_ID      = 1994-074B
CENTER_NAME    = EARTH
REF_FRAME      = TEME
TIME_SYSTEM    = UTC
MEAN_ELEMENT_THEORY = SGP/SGP4

EPOCH          = 2026-02-06T01:32:36.573216
MEAN_MOTION    = 14.79369839
ECCENTRICITY   = .00058706
INCLINATION    = 97.7150
RA_OF_ASC_NODE = 69.1571
ARG_OF_PERICENTER = 336.5504
MEAN_ANOMALY   = 45.1574

EPHEMERIS_TYPE = 0
CLASSIFICATION_TYPE = U
NORAD_CAT_ID   = 23343
ELEMENT_SET_NO = 999
REV_AT_EPOCH   = 68257
BSTAR          = .97475651E-4
MEAN_MOTION_DOT = .677E-5
MEAN_MOTION_DDOT = 0

CCSDS_OMM_VERS = 2.0
CREATION_DATE  = 
ORIGINATOR     = 

OBJECT_NAME    = SL-16 R/B
OBJECT_ID      = 1994-077B
CENTER_NAME    = EARTH
REF_FRAME      = TEME
TIME_SYSTEM    = UTC
MEAN_ELEMENT_THEORY = SGP/SGP4

EPOCH          = 2026-02-06T00:55:58.422432
MEAN_MOTION    = 14.15556650
ECCENTRICITY   = .00044136
INCLINATION    = 70.9814
RA_OF_ASC_NODE = 59.0768
ARG_OF_PERICENTER = 238.9694
MEAN_ANOMALY   = 121.0996

EPHEMERIS_TYPE = 0
CLASSIFICATION_TYPE = U
NORAD_CAT_ID   = 23405
ELEMENT_SET_NO = 999
REV_AT_EPOCH   = 61175
BSTAR          = .11619917E-4
MEAN_MOTION_DOT = -.25E-6
MEAN_MOTION_DDOT = 0

CCSDS_OMM_VERS = 2.0
CREATION_DATE  = 
ORIGINATOR     = 

OBJECT_NAME    = ARIANE 40+ R/B
OBJECT_ID      = 1995-021B
CENTER_NAME    = EARTH
REF_FRAME      = TEME
TIME_SYSTEM    = UTC
MEAN_ELEMENT_THEORY = SGP/SGP4

EPOCH          = 2026-02-06T04:31:54.017760
MEAN_MOTION    = 14.39748937
ECCENTRICITY   = .00059254
INCLINATION    = 98.4562
RA_OF_ASC_NODE = 109.0880
ARG_OF_PERICENTER = 229.3307
MEAN_ANOMALY   = 154.3458

EPHEMERIS_TYPE = 0
CLASSIFICATION_TYPE = U
NORAD_CAT_ID   = 23561
ELEMENT_SET_NO = 999
REV_AT_EPOCH   = 61471
BSTAR          = .14444168E-3
MEAN_MOTION_DOT = .409E-5
MEAN_MOTION_DDOT = 0

CCSDS_OMM_VERS = 2.0
CREATION_DATE  = 
ORIGINATOR     = 

OBJECT_NAME    = SL-16 R/B
OBJECT_ID      = 1995-058B
CENTER_NAME    = EARTH
REF_FRAME      = TEME
TIME_SYSTEM    = UTC
MEAN_ELEMENT_THEORY = SGP/SGP4

EPOCH          = 2026-02-05T23:22:02.559936
MEAN_MOTION    = 14.15490713
ECCENTRICITY   = .0012448
INCLINATION    = 71.0188
RA_OF_ASC_NODE = 246.8422
ARG_OF_PERICENTER = 177.6527
MEAN_ANOMALY   = 182.4656

EPHEMERIS_TYPE = 0
CLASSIFICATION_TYPE = U
NORAD_CAT_ID   = 23705
ELEMENT_SET_NO = 999
REV_AT_EPOCH   = 56336
BSTAR          = .17618E-3
MEAN_MOTION_DOT = .297E-5
MEAN_MOTION_DDOT = 0

CCSDS_OMM_VERS = 2.0
CREATION_DATE  = 
ORIGINATOR     = 

OBJECT_NAME    = SL-16 R/B
OBJECT_ID      = 1996-051B
CENTER_NAME    = EARTH
REF_FRAME      = TEME
TIME_SYSTEM    = UTC
MEAN_ELEMENT_THEORY = SGP/SGP4

EPOCH          = 2026-02-06T00:18:47.990016
MEAN_MOTION    = 14.12406612
ECCENTRICITY   = .00177255
INCLINATION    = 70.7566
RA_OF_ASC_NODE = 242.2876
ARG_OF_PERICENTER = 192.2013
MEAN_ANOMALY   = 167.8680

EPHEMERIS_TYPE = 0
CLASSIFICATION_TYPE = U
NORAD_CAT_ID   = 24298
ELEMENT_SET_NO = 999
REV_AT_EPOCH   = 51717
BSTAR          = .70169506E-4
MEAN_MOTION_DOT = .8E-6
MEAN_MOTION_DDOT = 0

CCSDS_OMM_VERS = 2.0
CREATION_DATE  = 
ORIGINATOR     = 

OBJECT_NAME    = ORBVIEW 2 (SEASTAR)
OBJECT_ID      = 1997-037A
CENTER_NAME    = EARTH
REF_FRAME      = TEME
TIME_SYSTEM    = UTC
MEAN_ELEMENT_THEORY = SGP/SGP4

EPOCH          = 2026-02-05T23:34:02.641728
MEAN_MOTION    = 14.35469739
ECCENTRICITY   = .00028325
INCLINATION    = 98.8511
RA_OF_ASC_NODE = 200.4637
ARG_OF_PERICENTER = 136.7634
MEAN_ANOMALY   = 223.3773

EPHEMERIS_TYPE = 0
CLASSIFICATION_TYPE = U
NORAD_CAT_ID   = 24883
ELEMENT_SET_NO = 999
REV_AT_EPOCH   = 50392
BSTAR          = .16051679E-3
MEAN_MOTION_DOT = .415E-5
MEAN_MOTION_DDOT = 0

