SL-16 R/B               
1 22566U 93016B   26037.11649283 -.00000041  00000+0  35935-5 0  9997
2 22566  71.0075 281.4981 0010134 357.6791   2.4283 14.15304048697701
COSMOS 2242             
1 22626U 93024A   26037.14246716  .00003131  00000+0  27322-3 0  9991
2 22626  82.5194 296.8892 0017750  54.3971 305.8902 14.96417133775670
SL-16 R/B               
1 22803U 93059B   26037.06821177  .00000273  00000+0  15878-3 0  9994
2 22803  70.9892  77.8131 0019486 259.7844 100.1082 14.17226335675055
ARIANE 40 R/B           
1 22830U 93061H   26037.13501884  .00000282  00000+0  11900-3 0  9997
2 22830  98.4983 106.6348 0010977  23.7093 336.4595 14.32844052689588
COSMOS 2278             
1 23087U 94023A   26037.47910919 -.00000185  00000+0 -71989-4 0  9999
2 23087  71.0503 240.3957 0006521  72.2758 287.9076 14.14364268640393
SL-16 R/B               
1 23088U 94023B   26036.69143846 -.00000056  00000+0 -44594-5 0  9990
2 23088  70.9999 138.0886 0004441 315.1252  44.9511 14.15003659641562
SL-16 R/B               
1 23343U 94074B   26037.06431219  .00000677  00000+0  97476-4 0  9999
2 23343  97.7150  69.1571 0005870 336.5504  45.1574 14.79369839682574
SL-16 R/B               
1 23405U 94077B   26037.03887063 -.00000025  00000+0  11620-4 0  9995
2 23405  70.9814  59.0768 0004413 238.9694 121.0996 14.15556650611759
ARIANE 40+ R/B          
1 23561U 95021B   26037.18881965  .00000409  00000+0  14444-3 0  9990
2 23561  98.4562 109.0880 0005925 229.3307 154.3458 14.39748937614710
SL-16 R/B               
1 23705U 95058B   26036.97364074  .00000297  00000+0  17618-3 0  9994
2 23705  71.0188 246.8422 0012448 177.6527 182.4656 14.15490713563366
SL-16 R/B               
1 24298U 96051B   26037.01305544  .00000080  00000+0  70170-4 0  9992
2 24298  70.7566 242.2876 0017725 192.2013 167.8680 14.12406612517173
ORBVIEW 2 (SEASTAR)     
1 24883U 97037A   26036.98197502  .00000415  00000+0  16052-3 0  9995
2 24883  98.8511 200.4637 0002832 136.7634 223.3773 14.35469739503923
